COSMOS 2251 DEB         
1 34410U 93036RB  17345.89129138  .00000647  00000-0  12874-3 0  9996
2 34410  73.7673 283.3913 0069229 292.2066 122.9352 14.63025175468568
